OBJECT_NAME,OBJECT_ID,EPOCH,MEAN_MOTION,ECCENTRICITY,INCLINATION,RA_OF_ASC_NODE,ARG_OF_PERICENTER,MEAN_ANOMALY,EPHEMERIS_TYPE,CLASSIFICATION_TYPE,NORAD_CAT_ID,ELEMENT_SET_NO,REV_AT_EPOCH,BSTAR,MEAN_MOTION_DOT,MEAN_MOTION_DDOT
HULIANWANG DIGUI-13,2025-030C,2026-06-19T06:09:41.674176,13.29322518,.00009989,50.0014,228.3993,186.1597,173.9263,0,U,62973,999,6613,.54109604E-4,-.99E-6,0
HULIANWANG DIGUI-14,2025-030D,2026-06-19T05:33:47.123424,13.29325609,.00009974,50.0020,228.2914,188.8116,171.2738,0,U,62974,999,6613,.46963696E-4,-.102E-5,0
HULIANWANG DIGUI-15,2025-030E,2026-06-19T05:57:42.292224,13.29322669,.00010792,50.0015,228.3589,189.6996,170.3855,0,U,62975,999,6613,.42556527E-4,-.104E-5,0
HULIANWANG DIGUI-16,2025-030F,2026-06-19T05:21:48.738528,13.29323778,.00009774,50.0038,228.3145,187.6007,172.4851,0,U,62976,999,6613,.48736446E-4,-.101E-5,0
HULIANWANG DIGUI-17,2025-030G,2026-06-19T05:09:40.566240,13.29326790,.00010844,50.0050,228.3200,183.5089,176.5776,0,U,62977,999,6613,.7308524E-4,-.9E-6,0
HULIANWANG DIGUI-18,2025-030H,2026-06-19T04:57:38.556864,13.29325962,.00011363,50.0055,228.2901,183.2782,176.8083,0,U,62978,999,6613,.72648765E-4,-.9E-6,0
HULIANWANG DIGUI-19,2025-030J,2026-06-19T05:45:44.147520,13.29320269,.00010234,50.0039,228.4082,180.2878,179.7993,0,U,62979,999,6613,.50764545E-4,-.1E-5,0
STARLINK-11543 [DTC],2025-031A,2026-06-19T05:10:17.532480,15.71028599,.00025506,42.9987,109.1549,263.2749,96.7828,0,U,62981,999,7871,.18936463E-2,.252043E-2,0
STARLINK-11458 [DTC],2025-031B,2026-06-19T05:33:13.610592,15.70964225,.00042102,43.0011,109.2809,256.2405,103.7994,0,U,62982,999,7871,.12755293E-2,.16748E-2,0
STARLINK-11417 [DTC],2025-031C,2026-06-18T13:39:35.538048,15.70866880,.0002771,43.0020,113.7971,263.0267,97.0285,0,U,62983,999,7860,.10149E-2,.132023E-2,0
STARLINK-11544 [DTC],2025-031D,2026-06-18T23:19:20.964288,15.70928712,.0002531,43.0005,110.7666,239.7430,120.3188,0,U,62984,999,7864,.11254E-2,.147102E-2,0
STARLINK-11582 [DTC],2025-031E,2026-06-19T05:48:31.883616,15.70882127,.00015061,43.0010,109.3648,266.3530,93.7165,0,U,62985,999,7871,.14381322E-2,.188665E-2,0
STARLINK-11571 [DTC],2025-031F,2026-06-19T06:00:02.000160,15.70830629,.00015204,43.0013,108.8694,270.2330,315.4352,0,U,62986,999,593,.11651375E-3,.14522E-3,0
STARLINK-11539 [DTC],2025-031G,2026-06-19T04:09:19.334016,15.70902178,.00024893,43.0019,109.7021,257.8247,102.2342,0,U,62987,999,7870,.19498791E-2,.258362E-2,0
STARLINK-11542 [DTC],2025-031H,2026-06-18T23:11:42.536256,15.70919761,.00014813,42.9997,110.7253,242.5698,117.5019,0,U,62988,999,7864,.93401671E-3,.121573E-2,0
STARLINK-11573 [DTC],2025-031J,2026-06-19T06:03:49.035168,15.70882902,.00018783,43.0021,109.4482,270.4094,89.6559,0,U,62989,999,7868,.10586482E-2,.137917E-2,0
STARLINK-11572 [DTC],2025-031K,2026-06-19T03:55:20.755488,15.70865662,.0001567,43.0004,109.6255,269.2499,90.8189,0,U,62990,999,7870,.98516959E-3,.128066E-2,0
STARLINK-11583 [DTC],2025-031L,2026-06-19T04:39:54.332640,15.70866817,.00020148,42.9995,109.8749,264.3121,95.7517,0,U,62991,999,7871,.11699388E-2,.152633E-2,0
STARLINK-11570 [DTC],2025-031M,2026-06-19T03:15:59.276736,15.70870829,.00014231,43.0000,110.2982,261.2370,98.8337,0,U,62992,999,7868,.9464784E-3,.122968E-2,0
STARLINK-11576 [DTC],2025-031N,2026-06-19T04:24:36.905472,15.70889675,.00019699,43.0015,109.7856,265.2482,94.8161,0,U,62993,999,7869,.15723099E-2,.206833E-2,0
STARLINK-32899,2025-031P,2026-06-19T07:39:18.085248,15.27591131,.00010327,43.0005,289.7768,259.8716,100.2019,0,U,62994,999,7663,.46945332E-3,.12683E-3,0
STARLINK-32819,2025-031Q,2026-06-19T00:34:33.993984,15.27587378,.00005151,42.9999,290.9998,254.7302,105.3493,0,U,62995,999,7659,.24896495E-3,.6597E-4,0
STARLINK-32703,2025-031R,2026-06-19T07:31:54.105024,15.27586823,.00008674,43.0000,289.7374,253.3880,106.6876,0,U,62996,999,7663,.46236034E-3,.12485E-3,0
STARLINK-32881,2025-031S,2026-06-18T14:54:49.176864,15.27591209,.0001677,43.0013,293.1351,279.2266,80.8396,0,U,62997,999,7653,.72394E-3,.19719E-3,0
STARLINK-32898,2025-031T,2026-06-19T07:22:38.841600,15.27594244,.00007004,42.9988,289.6889,303.6111,56.4673,0,U,62998,999,7663,.71739489E-3,.1954E-3,0
STARLINK-32658,2025-031U,2026-06-18T16:34:31.727136,15.27578444,.00013221,43.0002,292.7951,266.9700,93.1001,0,U,62999,999,7654,.71953341E-3,.1959E-3,0
STARLINK-32673,2025-031V,2026-06-19T00:51:12.981888,15.27591688,.0001978,43.0001,291.0816,278.5574,81.5054,0,U,63000,999,7659,.37147853E-3,.9978E-4,0
STARLINK-32437,2025-031W,2026-06-19T07:44:51.168480,15.27591285,.00011851,43.0023,289.8048,257.6416,102.4303,0,U,63001,999,7663,.49000274E-3,.13251E-3,0
FOSSASAT-2E20 (TAT-O),2025-009DN,2026-06-19T04:25:38.405856,15.29767865,.00018756,97.3163,246.0269,350.7196,9.4010,0,U,63003,999,13681,.36068602E-3,.10329E-3,0
