
FOSSASAT-2E20 (TAT-O)
1 63003U 25009DN  26170.18447229  .00010329  00000+0  36069-3 0  9992
2 63003  97.3163 246.0269 0001875 350.7196   9.4010 15.29767865136813

HULIANWANG DIGUI-13
1 62973U 25030C   26170.25673234 -.00000099  00000+0  54110-4 0  9998
2 62973  50.0014 228.3993 0000998 186.1597 173.9263 13.29322518 66131

HULIANWANG DIGUI-14
1 62974U 25030D   26170.23179541 -.00000102  00000+0  46964-4 0  9992
2 62974  50.0020 228.2914 0000997 188.8116 171.2738 13.29325609 66138

HULIANWANG DIGUI-15
1 62975U 25030E   26170.24840616 -.00000104  00000+0  42557-4 0  9998
2 62975  50.0015 228.3589 0001079 189.6996 170.3855 13.29322669 66132

HULIANWANG DIGUI-16
1 62976U 25030F   26170.22348077 -.00000101  00000+0  48736-4 0  9993
2 62976  50.0038 228.3145 0000977 187.6007 172.4851 13.29323778 66134

HULIANWANG DIGUI-17
1 62977U 25030G   26170.21505285 -.00000090  00000+0  73085-4 0  9991
2 62977  50.0050 228.3200 0001084 183.5089 176.5776 13.29326790 66134

HULIANWANG DIGUI-18
1 62978U 25030H   26170.20669626 -.00000090  00000+0  72649-4 0  9996
2 62978  50.0055 228.2901 0001136 183.2782 176.8083 13.29325962 66136

HULIANWANG DIGUI-19
1 62979U 25030J   26170.24009430 -.00000100  00000+0  50765-4 0  9999
2 62979  50.0039 228.4082 0001023 180.2878 179.7993 13.29320269 66136

STARLINK-11417 [DTC]
1 62983U 25031C   26169.56916132  .00132023  00000+0  10149-2 0  9993
2 62983  43.0020 113.7971 0002771 263.0267  97.0285 15.70866880 78602

STARLINK-11458 [DTC]
1 62982U 25031B   26170.23140753  .00167480  00000+0  12755-2 0  9996
2 62982  43.0011 109.2809 0004210 256.2405 103.7994 15.70964225 78715

STARLINK-11539 [DTC]
1 62987U 25031G   26170.17314044  .00258362  00000+0  19499-2 0  9992
2 62987  43.0019 109.7021 0002489 257.8247 102.2342 15.70902178 78705

STARLINK-11542 [DTC]
1 62988U 25031H   26169.96646454  .00121573  00000+0  93402-3 0  9991
2 62988  42.9997 110.7253 0001481 242.5698 117.5019 15.70919761 78649

STARLINK-11543 [DTC]
1 62981U 25031A   26170.21548070  .00252043  00000+0  18936-2 0  9994
2 62981  42.9987 109.1549 0002550 263.2749  96.7828 15.71028599 78711

STARLINK-11544 [DTC]
1 62984U 25031D   26169.97177042  .00147102  00000+0  11254-2 0  9990
2 62984  43.0005 110.7666 0002531 239.7430 120.3188 15.70928712 78649

STARLINK-11570 [DTC]
1 62992U 25031M   26170.13610274  .00122968  00000+0  94648-3 0  9990
2 62992  43.0000 110.2982 0001423 261.2370  98.8337 15.70870829 78685

STARLINK-11571 [DTC]
1 62986U 25031F   26170.25002315  .00014522  00000+0  11651-3 0  9996
2 62986  43.0013 108.8694 0001520 270.2330 315.4352 15.70830629  5936

STARLINK-11572 [DTC]
1 62990U 25031K   26170.16343467  .00128066  00000+0  98517-3 0  9992
2 62990  43.0004 109.6255 0001567 269.2499  90.8189 15.70865662 78700

STARLINK-11573 [DTC]
1 62989U 25031J   26170.25265087  .00137917  00000+0  10586-2 0  9995
2 62989  43.0021 109.4482 0001878 270.4094  89.6559 15.70882902 78687

STARLINK-11576 [DTC]
1 62993U 25031N   26170.18376048  .00206833  00000+0  15723-2 0  9994
2 62993  43.0015 109.7856 0001969 265.2482  94.8161 15.70889675 78699

STARLINK-11582 [DTC]
1 62985U 25031E   26170.24203569  .00188665  00000+0  14381-2 0  9990
2 62985  43.0010 109.3648 0001506 266.3530  93.7165 15.70882127 78713

STARLINK-11583 [DTC]
1 62991U 25031L   26170.19437885  .00152633  00000+0  11699-2 0  9996
2 62991  42.9995 109.8749 0002014 264.3121  95.7517 15.70866817 78717

STARLINK-32437
1 63001U 25031W   26170.32281445  .00013251  00000+0  49000-3 0  9993
2 63001  43.0023 289.8048 0001185 257.6416 102.4303 15.27591285 76639

STARLINK-32658
1 62999U 25031U   26169.69064499  .00019590  00000+0  71953-3 0  9998
2 62999  43.0002 292.7951 0001322 266.9700  93.1001 15.27578444 76542

STARLINK-32673
1 63000U 25031V   26170.03556692  .00009978  00000+0  37148-3 0  9990
2 63000  43.0001 291.0816 0001978 278.5574  81.5054 15.27591688 76591

STARLINK-32703
1 62996U 25031R   26170.31382066  .00012485  00000+0  46236-3 0  9991
2 62996  43.0000 289.7374 0000867 253.3880 106.6876 15.27586823 76634

STARLINK-32819
1 62995U 25031Q   26170.02400456  .00006597  00000+0  24896-3 0  9997
2 62995  42.9999 290.9998 0000515 254.7302 105.3493 15.27587378 76590

STARLINK-32881
1 62997U 25031S   26169.62140251  .00019719  00000+0  72394-3 0  9993
2 62997  43.0013 293.1351 0001677 279.2266  80.8396 15.27591209 76531

STARLINK-32898
1 62998U 25031T   26170.30739400  .00019540  00000+0  71739-3 0  9995
2 62998  42.9988 289.6889 0000700 303.6111  56.4673 15.27594244 76634

STARLINK-32899
1 62994U 25031P   26170.31895932  .00012683  00000+0  46945-3 0  9997
2 62994  43.0005 289.7768 0001032 259.8716 100.2019 15.27591131 76635
